{
    "links": {
        "self": "http://www.neowsapp.com/rest/v1/neo/3602529?api_key=iIulBulltgU6a56xZRHN4H3l9WmuAYTsLGpBGhQ2"
    },
    "id": "3602529",
    "neo_reference_id": "3602529",
    "name": "(2012 GE5)",
    "designation": "2012 GE5",
    "nasa_jpl_url": "http://ssd.jpl.nasa.gov/sbdb.cgi?sstr=3602529",
    "absolute_magnitude_h": 26.1,
    "estimated_diameter": {
        "kilometers": {
            "estimated_diameter_min": 0.0160160338,
            "estimated_diameter_max": 0.0358129403
        },
        "meters": {
            "estimated_diameter_min": 16.0160337979,
            "estimated_diameter_max": 35.8129403019
        },
        "miles": {
            "estimated_diameter_min": 0.0099518989,
            "estimated_diameter_max": 0.0222531225
        },
        "feet": {
            "estimated_diameter_min": 52.5460443254,
            "estimated_diameter_max": 117.4965270602
        }
    },
    "is_potentially_hazardous_asteroid": false,
    "close_approach_data": [
        {
            "close_approach_date": "2012-04-20",
            "close_approach_date_full": "2012-Apr-20 08:41",
            "epoch_date_close_approach": 1334911260000,
            "relative_velocity": {
                "kilometers_per_second": "9.3491247213",
                "kilometers_per_hour": "33656.8489966539",
                "miles_per_hour": "20913.0570890597"
            },
            "miss_distance": {
                "astronomical": "0.0468301511",
                "lunar": "18.2169287779",
                "kilometers": "7005690.856338157",
                "miles": "4353134.4406022866"
            },
            "orbiting_body": "Earth"
        }
    ],
    "orbital_data": {
        "orbit_id": "6",
        "orbit_determination_date": "2017-04-06 08:50:10",
        "first_observation_date": "2012-04-12",
        "last_observation_date": "2012-04-18",
        "data_arc_in_days": 6,
        "observations_used": 14,
        "orbit_uncertainty": "8",
        "minimum_orbit_intersection": ".0445606",
        "jupiter_tisserand_invariant": "2.980",
        "epoch_osculation": "2456030.5",
        "eccentricity": ".6314912811963902",
        "semi_major_axis": "2.813605892919968",
        "inclination": "7.350143432590451",
        "ascending_node_longitude": "22.82042557741843",
        "orbital_period": "1723.825593021777",
        "perihelion_distance": "1.036838302818224",
        "perihelion_argument": "200.7103947941669",
        "aphelion_distance": "4.590373483021712",
        "perihelion_time": "2456048.295877618934",
        "mean_anomaly": "356.2835474953206",
        "mean_motion": ".2088378322362291",
        "equinox": "J2000",
        "orbit_class": {
            "orbit_class_type": "AMO",
            "orbit_class_description": "Near-Earth asteroid orbits similar to that of 1221 Amor",
            "orbit_class_range": "1.017 AU < q (perihelion) < 1.3 AU"
        }
    },
    "is_sentry_object": false
}